{"type": "FeatureCollection", "features": [ {"type": "Feature", "properties": {"norad_id": 57401, "name": "TIANMU-1 09", "group": "weather", "lat": 60.11716078841647, "lon": -139.46526923080896, "alt_km": 471.8154091890592, "timestamp": "2025-12-04T07:39:35.817401+00:00", "meta": {"OBJECT_NAME": "TIANMU-1 09", "OBJECT_ID": "2023-101C", "EPOCH": "2025-12-03T23:16:55.972128", "MEAN_MOTION": 15.27877957, "ECCENTRICITY": 0.00067461, "INCLINATION": 97.2838, "RA_OF_ASC_NODE": 27.3325, "ARG_OF_PERICENTER": 107.7104, "MEAN_ANOMALY": 252.4873, "EPHEMERIS_TYPE": 0, "CLASSIFICATION_TYPE": "U", "NORAD_CAT_ID": 57401, "ELEMENT_SET_NO": 999, "REV_AT_EPOCH": 13181, "BSTAR": 0.00055068575, "MEAN_MOTION_DOT": 0.00014938, "MEAN_MOTION_DDOT": 0}, "tle": {"line1": "1 57401U 23101C   25337.97009227  .00014938  00000+0  55069-3 0  9992", "line2": "2 57401  97.2838  27.3325 0006746 107.7104 252.4873 15.27877957131814"}}, "geometry": {"type": "Point", "coordinates": [-139.46526923080896, 60.11716078841647]}}, {"type": "Feature", "properties": {"norad_id": 57402, "name": "TIANMU-1 10", "group": "weather", "lat": -67.69412650573474, "lon": 46.702138906621016, "alt_km": 495.2755848982779, "timestamp": "2025-12-04T07:39:35.817410+00:00", "meta": {"OBJECT_NAME": "TIANMU-1 10", "OBJECT_ID": "2023-101D", "EPOCH": "2025-12-03T22:31:49.360800", "MEAN_MOTION": 15.27868404, "ECCENTRICITY": 0.00085245, "INCLINATION": 97.292, "RA_OF_ASC_NODE": 28.1424, "ARG_OF_PERICENTER": 108.8708, "MEAN_ANOMALY": 251.3456, "EPHEMERIS_TYPE": 0, "CLASSIFICATION_TYPE": "U", "NORAD_CAT_ID": 57402, "ELEMENT_SET_NO": 999, "REV_AT_EPOCH": 13180, "BSTAR": 0.00053267873, "MEAN_MOTION_DOT": 0.00014448, "MEAN_MOTION_DDOT": 0}, "tle": {"line1": "1 57402U 23101D   25337.93876575  .00014448  00000+0  53268-3 0  9992", "line2": "2 57402  97.2920  28.1424 0008524 108.8708 251.3456 15.27868404131805"}}, "geometry": {"type": "Point", "coordinates": [46.702138906621016, -67.69412650573474]}}, {"type": "Feature", "properties": {"norad_id": 57490, "name": "FENGYUN 3F", "group": "weather", "lat": -41.32340331035742, "lon": -140.99777348142084, "alt_km": 832.6040071650623, "timestamp": "2025-12-04T07:39:35.817420+00:00", "meta": {"OBJECT_NAME": "FENGYUN 3F", "OBJECT_ID": "2023-111A", "EPOCH": "2025-12-03T22:09:44.498880", "MEAN_MOTION": 14.19889974, "ECCENTRICITY": 6.864e-05, "INCLINATION": 98.7095, "RA_OF_ASC_NODE": 46.3587, "ARG_OF_PERICENTER": 87.1343, "MEAN_ANOMALY": 272.9912, "EPHEMERIS_TYPE": 0, "CLASSIFICATION_TYPE": "U", "NORAD_CAT_ID": 57490, "ELEMENT_SET_NO": 999, "REV_AT_EPOCH": 12115, "BSTAR": 0.00011355019, "MEAN_MOTION_DOT": 1.97e-06, "MEAN_MOTION_DDOT": 0}, "tle": {"line1": "1 57490U 23111A   25337.92343170  .00000197  00000+0  11355-3 0  9996", "line2": "2 57490  98.7095  46.3587 0000686  87.1343 272.9912 14.19889974121156"}}, "geometry": {"type": "Point", "coordinates": [-140.99777348142084, -41.32340331035742]}}, {"type": "Feature", "properties": {"norad_id": 58584, "name": "ARKTIKA-M 2", "group": "weather", "lat": -38.65403589542047, "lon": 19.636747796853722, "alt_km": 3019.1108117004615, "timestamp": "2025-12-04T07:39:35.817431+00:00", "meta": {"OBJECT_NAME": "ARKTIKA-M 2", "OBJECT_ID": "2023-198A", "EPOCH": "2025-12-03T08:34:19.284960", "MEAN_MOTION": 2.00605176, "ECCENTRICITY": 0.68642509, "INCLINATION": 63.2223, "RA_OF_ASC_NODE": 175.9121, "ARG_OF_PERICENTER": 268.1397, "MEAN_ANOMALY": 18.842, "EPHEMERIS_TYPE": 0, "CLASSIFICATION_TYPE": "U", "NORAD_CAT_ID": 58584, "ELEMENT_SET_NO": 999, "REV_AT_EPOCH": 1439, "BSTAR": 0, "MEAN_MOTION_DOT": 2.24e-06, "MEAN_MOTION_DDOT": 0}, "tle": {"line1": "1 58584U 23198A   25337.35716765  .00000224  00000+0  00000+0 0  9999", "line2": "2 58584  63.2223 175.9121 6864250 268.1397  18.8420  2.00605176 14390"}}, "geometry": {"type": "Point", "coordinates": [19.636747796853722, -38.65403589542047]}}, {"type": "Feature", "properties": {"norad_id": 58645, "name": "TIANMU-1 11", "group": "weather", "lat": -34.65083033448818, "lon": 172.96571711361776, "alt_km": 502.56115977990976, "timestamp": "2025-12-04T07:39:35.817441+00:00", "meta": {"OBJECT_NAME": "TIANMU-1 11", "OBJECT_ID": "2023-205A", "EPOCH": "2025-12-04T00:25:05.814624", "MEAN_MOTION": 15.24431871, "ECCENTRICITY": 0.00087827, "INCLINATION": 97.3609, "RA_OF_ASC_NODE": 357.7955, "ARG_OF_PERICENTER": 344.6679, "MEAN_ANOMALY": 15.4292, "EPHEMERIS_TYPE": 0, "CLASSIFICATION_TYPE": "U", "NORAD_CAT_ID": 58645, "ELEMENT_SET_NO": 999, "REV_AT_EPOCH": 10776, "BSTAR": 0.00047697898, "MEAN_MOTION_DOT": 0.00011651, "MEAN_MOTION_DDOT": 0}, "tle": {"line1": "1 58645U 23205A   25338.01742841  .00011651  00000+0  47698-3 0  9998", "line2": "2 58645  97.3609 357.7955 0008782 344.6679  15.4292 15.24431871107769"}}, "geometry": {"type": "Point", "coordinates": [172.96571711361776, -34.65083033448818]}}, {"type": "Feature", "properties": {"norad_id": 58646, "name": "TIANMU-1 12", "group": "weather", "lat": 69.07665794527725, "lon": -21.858977874762278, "alt_km": 486.91708573331834, "timestamp": "2025-12-04T07:39:35.817451+00:00", "meta": {"OBJECT_NAME": "TIANMU-1 12", "OBJECT_ID": "2023-205B", "EPOCH": "2025-12-03T23:28:31.077408", "MEAN_MOTION": 15.24344811, "ECCENTRICITY": 0.00066142, "INCLINATION": 97.3597, "RA_OF_ASC_NODE": 357.5652, "ARG_OF_PERICENTER": 330.5443, "MEAN_ANOMALY": 29.5421, "EPHEMERIS_TYPE": 0, "CLASSIFICATION_TYPE": "U", "NORAD_CAT_ID": 58646, "ELEMENT_SET_NO": 999, "REV_AT_EPOCH": 10774, "BSTAR": 0.00047843524, "MEAN_MOTION_DOT": 0.00011652, "MEAN_MOTION_DDOT": 0}, "tle": {"line1": "1 58646U 23205B   25337.97813747  .00011652  00000+0  47844-3 0  9991", "line2": "2 58646  97.3597 357.5652 0006614 330.5443  29.5421 15.24344811107748"}}, "geometry": {"type": "Point", "coordinates": [-21.858977874762278, 69.07665794527725]}}, {"type": "Feature", "properties": {"norad_id": 58647, "name": "TIANMU-1 13", "group": "weather", "lat": -64.46143869921883, "lon": 162.39662639002216, "alt_km": 497.7802346670578, "timestamp": "2025-12-04T07:39:35.817461+00:00", "meta": {"OBJECT_NAME": "TIANMU-1 13", "OBJECT_ID": "2023-205C", "EPOCH": "2025-12-04T00:17:02.912928", "MEAN_MOTION": 15.2435193, "ECCENTRICITY": 0.00063622, "INCLINATION": 97.3624, "RA_OF_ASC_NODE": 357.7956, "ARG_OF_PERICENTER": 306.7238, "MEAN_ANOMALY": 53.3415, "EPHEMERIS_TYPE": 0, "CLASSIFICATION_TYPE": "U", "NORAD_CAT_ID": 58647, "ELEMENT_SET_NO": 999, "REV_AT_EPOCH": 10774, "BSTAR": 0.00050630774, "MEAN_MOTION_DOT": 0.00012338, "MEAN_MOTION_DDOT": 0}, "tle": {"line1": "1 58647U 23205C   25338.01183927  .00012338  00000+0  50631-3 0  9998", "line2": "2 58647  97.3624 357.7956 0006362 306.7238  53.3415 15.24351930107744"}}, "geometry": {"type": "Point", "coordinates": [162.39662639002216, -64.46143869921883]}}, {"type": "Feature", "properties": {"norad_id": 58648, "name": "TIANMU-1 14", "group": "weather", "lat": -22.859809889862067, "lon": 0.5759884334412901, "alt_km": 493.8329229406245, "timestamp": "2025-12-04T07:39:35.817471+00:00", "meta": {"OBJECT_NAME": "TIANMU-1 14", "OBJECT_ID": "2023-205D", "EPOCH": "2025-12-03T23:53:00.476160", "MEAN_MOTION": 15.24336229, "ECCENTRICITY": 0.00072616, "INCLINATION": 97.3557, "RA_OF_ASC_NODE": 357.136, "ARG_OF_PERICENTER": 311.1361, "MEAN_ANOMALY": 48.9249, "EPHEMERIS_TYPE": 0, "CLASSIFICATION_TYPE": "U", "NORAD_CAT_ID": 58648, "ELEMENT_SET_NO": 999, "REV_AT_EPOCH": 10774, "BSTAR": 0.00049057188, "MEAN_MOTION_DOT": 0.00011948, "MEAN_MOTION_DDOT": 0}, "tle": {"line1": "1 58648U 23205D   25337.99514440  .00011948  00000+0  49057-3 0  9999", "line2": "2 58648  97.3557 357.1360 0007261 311.1361  48.9249 15.24336229107748"}}, "geometry": {"type": "Point", "coordinates": [0.5759884334412901, -22.859809889862067]}}, {"type": "Feature", "properties": {"norad_id": 58660, "name": "TIANMU-1 19", "group": "weather", "lat": 47.53565493190586, "lon": -82.41674754542491, "alt_km": 481.42164259562105, "timestamp": "2025-12-04T07:39:35.817480+00:00", "meta": {"OBJECT_NAME": "TIANMU-1 19", "OBJECT_ID": "2023-208A", "EPOCH": "2025-12-03T23:13:26.152320", "MEAN_MOTION": 15.2759571, "ECCENTRICITY": 0.00040772, "INCLINATION": 97.4394, "RA_OF_ASC_NODE": 89.024, "ARG_OF_PERICENTER": 292.3697, "MEAN_ANOMALY": 67.711, "EPHEMERIS_TYPE": 0, "CLASSIFICATION_TYPE": "U", "NORAD_CAT_ID": 58660, "ELEMENT_SET_NO": 999, "REV_AT_EPOCH": 10748, "BSTAR": 0.00063257974, "MEAN_MOTION_DOT": 0.00017019, "MEAN_MOTION_DDOT": 0}, "tle": {"line1": "1 58660U 23208A   25337.96766380  .00017019  00000+0  63258-3 0  9999", "line2": "2 58660  97.4394  89.0240 0004077 292.3697  67.7110 15.27595710107486"}}, "geometry": {"type": "Point", "coordinates": [-82.41674754542491, 47.53565493190586]}}, {"type": "Feature", "properties": {"norad_id": 58661, "name": "TIANMU-1 20", "group": "weather", "lat": 9.799556733549048, "lon": -88.89392890115602, "alt_km": 484.06817506339394, "timestamp": "2025-12-04T07:39:35.817491+00:00", "meta": {"OBJECT_NAME": "TIANMU-1 20", "OBJECT_ID": "2023-208B", "EPOCH": "2025-12-03T23:03:49.713984", "MEAN_MOTION": 15.28787695, "ECCENTRICITY": 0.00064566, "INCLINATION": 97.4331, "RA_OF_ASC_NODE": 89.4563, "ARG_OF_PERICENTER": 302.7771, "MEAN_ANOMALY": 57.2846, "EPHEMERIS_TYPE": 0, "CLASSIFICATION_TYPE": "U", "NORAD_CAT_ID": 58661, "ELEMENT_SET_NO": 999, "REV_AT_EPOCH": 10755, "BSTAR": 0.00060069028, "MEAN_MOTION_DOT": 0.00016761, "MEAN_MOTION_DDOT": 0}, "tle": {"line1": "1 58661U 23208B   25337.96099206  .00016761  00000+0  60069-3 0  9996", "line2": "2 58661  97.4331  89.4563 0006456 302.7771  57.2846 15.28787695107556"}}, "geometry": {"type": "Point", "coordinates": [-88.89392890115602, 9.799556733549048]}}]}